SL-3 R/B                
1 13403U 82079B   26043.79239676  .00005548  00000+0  22338-3 0  9993
2 13403  81.1441 222.4675 0024153 250.0504 109.8127 15.24422289373900
SL-14 R/B               
1 13553U 82092B   26043.82699610  .00000584  00000+0  62834-4 0  9997
2 13553  82.5707 164.6471 0021002  27.7183 138.9169 14.86638955325237
SL-3 R/B                
1 13819U 83010B   26043.45180765  .00017560  00000+0  36369-3 0  9993
2 13819  81.1026  33.1672 0018228 130.7840 229.4989 15.45444713354045
SL-3 R/B                
1 14208U 83075B   26043.76984791  .00012164  00000+0  32771-3 0  9990
2 14208  97.6132  47.4200 0020573 323.6970  36.2877 15.37774240326328
COSMOS 1536             
1 14699U 84013A   26043.69810995  .00005704  00000+0  23716-3 0  9994
2 14699  82.5469 132.6821 0014479  16.3973 343.7729 15.23488587268813
SL-14 R/B               
1 14820U 84027B   26043.71074982  .00000441  00000+0  47592-4 0  9998
2 14820  82.5393 268.4458 0019320  58.7192 301.5913 14.85951385243922
SL-8 R/B                
1 15483U 85006B   26043.81795106  .00000211  00000+0  78750-4 0  9996
2 15483  74.0465 306.9151 0019346 229.7151 191.4568 14.37770898150457
SL-12 R/B(2)            
1 15772U 85042D   26043.73177368  .00000097  00000+0  64971-4 0  9994
2 15772  71.1086 140.4578 0034686 168.2374 306.0985 14.21975532110848
SL-14 R/B               
1 15945U 85069B   26043.50113285  .00000605  00000+0  65714-4 0  9999
2 15945  82.5241  48.6226 0017195 276.6148  83.3111 14.86403200169093
SL-16 R/B               
1 16182U 85097B   26043.78568742 -.00000223  00000+0 -87868-4 0  9998
2 16182  71.0022 192.9794 0009712 288.8724 172.2804 14.16595415 83704
SL-14 R/B               
1 16496U 86006B   26043.75401585  .00000705  00000+0  72228-4 0  9992
2 16496  82.5259 283.2088 0076564 356.5755   3.4926 14.86781490145501
COSMOS 1743             
1 16719U 86034A   26043.58683043  .00034644  00000+0  48326-3 0  9993
2 16719  82.5329 100.1387 0004796  41.0448 319.1167 15.56719088176341
