CCSDS_OMM_VERS = 2.0
CREATION_DATE  = 
ORIGINATOR     = 

OBJECT_NAME    = SL-3 R/B
OBJECT_ID      = 1982-079B
CENTER_NAME    = EARTH
REF_FRAME      = TEME
TIME_SYSTEM    = UTC
MEAN_ELEMENT_THEORY = SGP/SGP4

EPOCH          = 2026-02-12T19:01:03.080064
MEAN_MOTION    = 15.24422289
ECCENTRICITY   = .0024153
INCLINATION    = 81.1441
RA_OF_ASC_NODE = 222.4675
ARG_OF_PERICENTER = 250.0504
MEAN_ANOMALY   = 109.8127

EPHEMERIS_TYPE = 0
CLASSIFICATION_TYPE = U
NORAD_CAT_ID   = 13403
ELEMENT_SET_NO = 999
REV_AT_EPOCH   = 37390
BSTAR          = .22338E-3
MEAN_MOTION_DOT = .5548E-4
MEAN_MOTION_DDOT = 0

CCSDS_OMM_VERS = 2.0
CREATION_DATE  = 
ORIGINATOR     = 

OBJECT_NAME    = SL-14 R/B
OBJECT_ID      = 1982-092B
CENTER_NAME    = EARTH
REF_FRAME      = TEME
TIME_SYSTEM    = UTC
MEAN_ELEMENT_THEORY = SGP/SGP4

EPOCH          = 2026-02-12T19:50:52.463040
MEAN_MOTION    = 14.86638955
ECCENTRICITY   = .0021002
INCLINATION    = 82.5707
RA_OF_ASC_NODE = 164.6471
ARG_OF_PERICENTER = 27.7183
MEAN_ANOMALY   = 138.9169

EPHEMERIS_TYPE = 0
CLASSIFICATION_TYPE = U
NORAD_CAT_ID   = 13553
ELEMENT_SET_NO = 999
REV_AT_EPOCH   = 32523
BSTAR          = .62834E-4
MEAN_MOTION_DOT = .584E-5
MEAN_MOTION_DDOT = 0

CCSDS_OMM_VERS = 2.0
CREATION_DATE  = 
ORIGINATOR     = 

OBJECT_NAME    = SL-3 R/B
OBJECT_ID      = 1983-010B
CENTER_NAME    = EARTH
REF_FRAME      = TEME
TIME_SYSTEM    = UTC
MEAN_ELEMENT_THEORY = SGP/SGP4

EPOCH          = 2026-02-12T10:50:36.180960
MEAN_MOTION    = 15.45444713
ECCENTRICITY   = .00182284
INCLINATION    = 81.1026
RA_OF_ASC_NODE = 33.1672
ARG_OF_PERICENTER = 130.7840
MEAN_ANOMALY   = 229.4989

EPHEMERIS_TYPE = 0
CLASSIFICATION_TYPE = U
NORAD_CAT_ID   = 13819
ELEMENT_SET_NO = 999
REV_AT_EPOCH   = 35404
BSTAR          = .36369496E-3
MEAN_MOTION_DOT = .1756E-3
MEAN_MOTION_DDOT = 0

CCSDS_OMM_VERS = 2.0
CREATION_DATE  = 
ORIGINATOR     = 

OBJECT_NAME    = SL-3 R/B
OBJECT_ID      = 1983-075B
CENTER_NAME    = EARTH
REF_FRAME      = TEME
TIME_SYSTEM    = UTC
MEAN_ELEMENT_THEORY = SGP/SGP4

EPOCH          = 2026-02-12T18:28:34.859424
MEAN_MOTION    = 15.37774240
ECCENTRICITY   = .0020573
INCLINATION    = 97.6132
RA_OF_ASC_NODE = 47.4200
ARG_OF_PERICENTER = 323.6970
MEAN_ANOMALY   = 36.2877

EPHEMERIS_TYPE = 0
CLASSIFICATION_TYPE = U
NORAD_CAT_ID   = 14208
ELEMENT_SET_NO = 999
REV_AT_EPOCH   = 32632
BSTAR          = .32771E-3
MEAN_MOTION_DOT = .12164E-3
MEAN_MOTION_DDOT = 0

CCSDS_OMM_VERS = 2.0
CREATION_DATE  = 
ORIGINATOR     = 

OBJECT_NAME    = COSMOS 1536
OBJECT_ID      = 1984-013A
CENTER_NAME    = EARTH
REF_FRAME      = TEME
TIME_SYSTEM    = UTC
MEAN_ELEMENT_THEORY = SGP/SGP4

EPOCH          = 2026-02-12T16:45:16.699680
MEAN_MOTION    = 15.23488587
ECCENTRICITY   = .0014479
INCLINATION    = 82.5469
RA_OF_ASC_NODE = 132.6821
ARG_OF_PERICENTER = 16.3973
MEAN_ANOMALY   = 343.7729

EPHEMERIS_TYPE = 0
CLASSIFICATION_TYPE = U
NORAD_CAT_ID   = 14699
ELEMENT_SET_NO = 999
REV_AT_EPOCH   = 26881
BSTAR          = .23716E-3
MEAN_MOTION_DOT = .5704E-4
MEAN_MOTION_DDOT = 0

CCSDS_OMM_VERS = 2.0
CREATION_DATE  = 
ORIGINATOR     = 

OBJECT_NAME    = SL-14 R/B
OBJECT_ID      = 1984-027B
CENTER_NAME    = EARTH
REF_FRAME      = TEME
TIME_SYSTEM    = UTC
MEAN_ELEMENT_THEORY = SGP/SGP4

EPOCH          = 2026-02-12T17:03:28.784448
MEAN_MOTION    = 14.85951385
ECCENTRICITY   = .001932
INCLINATION    = 82.5393
RA_OF_ASC_NODE = 268.4458
ARG_OF_PERICENTER = 58.7192
MEAN_ANOMALY   = 301.5913

EPHEMERIS_TYPE = 0
CLASSIFICATION_TYPE = U
NORAD_CAT_ID   = 14820
ELEMENT_SET_NO = 999
REV_AT_EPOCH   = 24392
BSTAR          = .47592E-4
MEAN_MOTION_DOT = .441E-5
MEAN_MOTION_DDOT = 0

CCSDS_OMM_VERS = 2.0
CREATION_DATE  = 
ORIGINATOR     = 

OBJECT_NAME    = SL-8 R/B
OBJECT_ID      = 1985-006B
CENTER_NAME    = EARTH
REF_FRAME      = TEME
TIME_SYSTEM    = UTC
MEAN_ELEMENT_THEORY = SGP/SGP4

EPOCH          = 2026-02-12T19:37:50.971584
MEAN_MOTION    = 14.37770898
ECCENTRICITY   = .0019346
INCLINATION    = 74.0465
RA_OF_ASC_NODE = 306.9151
ARG_OF_PERICENTER = 229.7151
MEAN_ANOMALY   = 191.4568

EPHEMERIS_TYPE = 0
CLASSIFICATION_TYPE = U
NORAD_CAT_ID   = 15483
ELEMENT_SET_NO = 999
REV_AT_EPOCH   = 15045
BSTAR          = .7875E-4
MEAN_MOTION_DOT = .211E-5
MEAN_MOTION_DDOT = 0

CCSDS_OMM_VERS = 2.0
CREATION_DATE  = 
ORIGINATOR     = 

OBJECT_NAME    = SL-12 R/B(2)
OBJECT_ID      = 1985-042D
CENTER_NAME    = EARTH
REF_FRAME      = TEME
TIME_SYSTEM    = UTC
MEAN_ELEMENT_THEORY = SGP/SGP4

EPOCH          = 2026-02-12T17:33:45.245952
MEAN_MOTION    = 14.21975532
ECCENTRICITY   = .0034686
INCLINATION    = 71.1086
RA_OF_ASC_NODE = 140.4578
ARG_OF_PERICENTER = 168.2374
MEAN_ANOMALY   = 306.0985

EPHEMERIS_TYPE = 0
CLASSIFICATION_TYPE = U
NORAD_CAT_ID   = 15772
ELEMENT_SET_NO = 999
REV_AT_EPOCH   = 11084
BSTAR          = .64971E-4
MEAN_MOTION_DOT = .97E-6
MEAN_MOTION_DDOT = 0

CCSDS_OMM_VERS = 2.0
CREATION_DATE  = 
ORIGINATOR     = 

OBJECT_NAME    = SL-14 R/B
OBJECT_ID      = 1985-069B
CENTER_NAME    = EARTH
REF_FRAME      = TEME
TIME_SYSTEM    = UTC
MEAN_ELEMENT_THEORY = SGP/SGP4

EPOCH          = 2026-02-12T12:01:37.878240
MEAN_MOTION    = 14.86403200
ECCENTRICITY   = .00171952
INCLINATION    = 82.5241
RA_OF_ASC_NODE = 48.6226
ARG_OF_PERICENTER = 276.6148
MEAN_ANOMALY   = 83.3111

EPHEMERIS_TYPE = 0
CLASSIFICATION_TYPE = U
NORAD_CAT_ID   = 15945
ELEMENT_SET_NO = 999
REV_AT_EPOCH   = 16909
BSTAR          = .65714073E-4
MEAN_MOTION_DOT = .605E-5
MEAN_MOTION_DDOT = 0

CCSDS_OMM_VERS = 2.0
CREATION_DATE  = 
ORIGINATOR     = 

OBJECT_NAME    = SL-16 R/B
OBJECT_ID      = 1985-097B
CENTER_NAME    = EARTH
REF_FRAME      = TEME
TIME_SYSTEM    = UTC
MEAN_ELEMENT_THEORY = SGP/SGP4

EPOCH          = 2026-02-12T18:51:23.393088
MEAN_MOTION    = 14.16595415
ECCENTRICITY   = .0009712
INCLINATION    = 71.0022
RA_OF_ASC_NODE = 192.9794
ARG_OF_PERICENTER = 288.8724
MEAN_ANOMALY   = 172.2804

EPHEMERIS_TYPE = 0
CLASSIFICATION_TYPE = U
NORAD_CAT_ID   = 16182
ELEMENT_SET_NO = 999
REV_AT_EPOCH   = 8370
BSTAR          = -.87868E-4
MEAN_MOTION_DOT = -.223E-5
MEAN_MOTION_DDOT = 0

CCSDS_OMM_VERS = 2.0
CREATION_DATE  = 
ORIGINATOR     = 

OBJECT_NAME    = SL-14 R/B
OBJECT_ID      = 1986-006B
CENTER_NAME    = EARTH
REF_FRAME      = TEME
TIME_SYSTEM    = UTC
MEAN_ELEMENT_THEORY = SGP/SGP4

EPOCH          = 2026-02-12T18:05:46.969440
MEAN_MOTION    = 14.86781490
ECCENTRICITY   = .0076564
INCLINATION    = 82.5259
RA_OF_ASC_NODE = 283.2088
ARG_OF_PERICENTER = 356.5755
MEAN_ANOMALY   = 3.4926

EPHEMERIS_TYPE = 0
CLASSIFICATION_TYPE = U
NORAD_CAT_ID   = 16496
ELEMENT_SET_NO = 999
REV_AT_EPOCH   = 14550
BSTAR          = .72228E-4
MEAN_MOTION_DOT = .705E-5
MEAN_MOTION_DDOT = 0

CCSDS_OMM_VERS = 2.0
CREATION_DATE  = 
ORIGINATOR     = 

OBJECT_NAME    = COSMOS 1743
OBJECT_ID      = 1986-034A
CENTER_NAME    = EARTH
REF_FRAME      = TEME
TIME_SYSTEM    = UTC
MEAN_ELEMENT_THEORY = SGP/SGP4

EPOCH          = 2026-02-12T14:05:02.149152
MEAN_MOTION    = 15.56719088
ECCENTRICITY   = .0004796
INCLINATION    = 82.5329
RA_OF_ASC_NODE = 100.1387
ARG_OF_PERICENTER = 41.0448
MEAN_ANOMALY   = 319.1167

EPHEMERIS_TYPE = 0
CLASSIFICATION_TYPE = U
NORAD_CAT_ID   = 16719
ELEMENT_SET_NO = 999
REV_AT_EPOCH   = 17634
BSTAR          = .48326E-3
MEAN_MOTION_DOT = .34644E-3
MEAN_MOTION_DDOT = 0

